[{"OBJECT_NAME":"STARLINK-31692","OBJECT_ID":"2024-076P","EPOCH":"2026-03-09T04:19:37.028352","MEAN_MOTION":15.27578376,"ECCENTRICITY":0.00014704,"INCLINATION":43.0042,"RA_OF_ASC_NODE":11.9462,"ARG_OF_PERICENTER":261.8483,"MEAN_ANOMALY":98.2202,"EPHEMERIS_TYPE":0,"CLASSIFICATION_TYPE":"U","NORAD_CAT_ID":59577,"ELEMENT_SET_NO":999,"REV_AT_EPOCH":10642,"BSTAR":4.2720269e-5,"MEAN_MOTION_DOT":9.13e-6,"MEAN_MOTION_DDOT":0},{"OBJECT_NAME":"FLOCK 4G-24","OBJECT_ID":"2025-009AE","EPOCH":"2026-03-09T17:24:07.838208","MEAN_MOTION":15.27784978,"ECCENTRICITY":0.0001802,"INCLINATION":97.4061,"RA_OF_ASC_NODE":151.514,"ARG_OF_PERICENTER":280.2808,"MEAN_ANOMALY":79.8228,"EPHEMERIS_TYPE":0,"CLASSIFICATION_TYPE":"U","NORAD_CAT_ID":62637,"ELEMENT_SET_NO":999,"REV_AT_EPOCH":6373,"BSTAR":0.00038996067,"MEAN_MOTION_DOT":0.00010513,"MEAN_MOTION_DDOT":0}]
